CCSDS_OMM_VERS = 2.0
CREATION_DATE  = 
ORIGINATOR     = 

OBJECT_NAME    = H-2A R/B
OBJECT_ID      = 2006-002B
CENTER_NAME    = EARTH
REF_FRAME      = TEME
TIME_SYSTEM    = UTC
MEAN_ELEMENT_THEORY = SGP/SGP4

EPOCH          = 2026-04-02T16:33:34.518240
MEAN_MOTION    = 15.16981461
ECCENTRICITY   = .0052436
INCLINATION    = 98.2457
RA_OF_ASC_NODE = 241.7940
ARG_OF_PERICENTER = 159.1769
MEAN_ANOMALY   = 201.1614

EPHEMERIS_TYPE = 0
CLASSIFICATION_TYPE = U
NORAD_CAT_ID   = 28932
ELEMENT_SET_NO = 999
REV_AT_EPOCH   = 9807
BSTAR          = .78734E-3
MEAN_MOTION_DOT = .16052E-3
MEAN_MOTION_DDOT = 0

CCSDS_OMM_VERS = 2.0
CREATION_DATE  = 
ORIGINATOR     = 

OBJECT_NAME    = RESURS-DK 1
OBJECT_ID      = 2006-021A
CENTER_NAME    = EARTH
REF_FRAME      = TEME
TIME_SYSTEM    = UTC
MEAN_ELEMENT_THEORY = SGP/SGP4

EPOCH          = 2026-04-02T16:04:01.026048
MEAN_MOTION    = 15.12892794
ECCENTRICITY   = .0001777
INCLINATION    = 69.9334
RA_OF_ASC_NODE = 174.9918
ARG_OF_PERICENTER = 40.3664
MEAN_ANOMALY   = 319.7634

EPHEMERIS_TYPE = 0
CLASSIFICATION_TYPE = U
NORAD_CAT_ID   = 29228
ELEMENT_SET_NO = 999
REV_AT_EPOCH   = 9115
BSTAR          = .16764E-3
MEAN_MOTION_DOT = .2851E-4
MEAN_MOTION_DDOT = 0

CCSDS_OMM_VERS = 2.0
CREATION_DATE  = 
ORIGINATOR     = 

OBJECT_NAME    = CZ-4B R/B
OBJECT_ID      = 2006-046C
CENTER_NAME    = EARTH
REF_FRAME      = TEME
TIME_SYSTEM    = UTC
MEAN_ELEMENT_THEORY = SGP/SGP4

EPOCH          = 2026-04-02T13:16:11.173440
MEAN_MOTION    = 15.17151880
ECCENTRICITY   = .00331572
INCLINATION    = 97.5539
RA_OF_ASC_NODE = 137.3952
ARG_OF_PERICENTER = 182.0851
MEAN_ANOMALY   = 178.0249

EPHEMERIS_TYPE = 0
CLASSIFICATION_TYPE = U
NORAD_CAT_ID   = 29507
ELEMENT_SET_NO = 999
REV_AT_EPOCH   = 6366
BSTAR          = .29599385E-3
MEAN_MOTION_DOT = .5887E-4
MEAN_MOTION_DDOT = 0

CCSDS_OMM_VERS = 2.0
CREATION_DATE  = 
ORIGINATOR     = 

OBJECT_NAME    = CZ-2C R/B
OBJECT_ID      = 2007-010B
CENTER_NAME    = EARTH
REF_FRAME      = TEME
TIME_SYSTEM    = UTC
MEAN_ELEMENT_THEORY = SGP/SGP4

EPOCH          = 2026-04-02T12:54:49.994496
MEAN_MOTION    = 14.20255176
ECCENTRICITY   = .00582467
INCLINATION    = 98.4003
RA_OF_ASC_NODE = 204.6245
ARG_OF_PERICENTER = 223.9956
MEAN_ANOMALY   = 135.6578

EPHEMERIS_TYPE = 0
CLASSIFICATION_TYPE = U
NORAD_CAT_ID   = 31114
ELEMENT_SET_NO = 999
REV_AT_EPOCH   = 98310
BSTAR          = .10200257E-3
MEAN_MOTION_DOT = .18E-5
MEAN_MOTION_DDOT = 0

CCSDS_OMM_VERS = 2.0
CREATION_DATE  = 
ORIGINATOR     = 

OBJECT_NAME    = COSMO-SKYMED 1
OBJECT_ID      = 2007-023A
CENTER_NAME    = EARTH
REF_FRAME      = TEME
TIME_SYSTEM    = UTC
MEAN_ELEMENT_THEORY = SGP/SGP4

EPOCH          = 2026-04-02T19:12:28.105056
MEAN_MOTION    = 14.96715203
ECCENTRICITY   = .0001426
INCLINATION    = 97.8867
RA_OF_ASC_NODE = 284.0294
ARG_OF_PERICENTER = 102.3919
MEAN_ANOMALY   = 257.7462

EPHEMERIS_TYPE = 0
CLASSIFICATION_TYPE = U
NORAD_CAT_ID   = 31598
ELEMENT_SET_NO = 999
REV_AT_EPOCH   = 1851
BSTAR          = .39538E-3
MEAN_MOTION_DOT = .4457E-4
MEAN_MOTION_DDOT = 0

CCSDS_OMM_VERS = 2.0
CREATION_DATE  = 
ORIGINATOR     = 

OBJECT_NAME    = COSMOS 2428
OBJECT_ID      = 2007-029A
CENTER_NAME    = EARTH
REF_FRAME      = TEME
TIME_SYSTEM    = UTC
MEAN_ELEMENT_THEORY = SGP/SGP4

EPOCH          = 2026-04-02T14:31:12.975456
MEAN_MOTION    = 14.12948671
ECCENTRICITY   = .00097
INCLINATION    = 70.9425
RA_OF_ASC_NODE = 153.1500
ARG_OF_PERICENTER = 252.2587
MEAN_ANOMALY   = 107.7476

EPHEMERIS_TYPE = 0
CLASSIFICATION_TYPE = U
NORAD_CAT_ID   = 31792
ELEMENT_SET_NO = 999
REV_AT_EPOCH   = 96747
BSTAR          = .1473E-4
MEAN_MOTION_DOT = -.2E-6
MEAN_MOTION_DDOT = 0

CCSDS_OMM_VERS = 2.0
CREATION_DATE  = 
ORIGINATOR     = 

OBJECT_NAME    = SL-16 R/B
OBJECT_ID      = 2007-029B
CENTER_NAME    = EARTH
REF_FRAME      = TEME
TIME_SYSTEM    = UTC
MEAN_ELEMENT_THEORY = SGP/SGP4

EPOCH          = 2026-04-02T20:04:05.362752
MEAN_MOTION    = 14.14843880
ECCENTRICITY   = .0002875
INCLINATION    = 70.9742
RA_OF_ASC_NODE = 121.6284
ARG_OF_PERICENTER = 277.3899
MEAN_ANOMALY   = 257.0162

EPHEMERIS_TYPE = 0
CLASSIFICATION_TYPE = U
NORAD_CAT_ID   = 31793
ELEMENT_SET_NO = 999
REV_AT_EPOCH   = 96878
BSTAR          = -.15193E-4
MEAN_MOTION_DOT = -.77E-6
MEAN_MOTION_DDOT = 0

CCSDS_OMM_VERS = 2.0
CREATION_DATE  = 
ORIGINATOR     = 

OBJECT_NAME    = KORONAS-FOTON
OBJECT_ID      = 2009-003A
CENTER_NAME    = EARTH
REF_FRAME      = TEME
TIME_SYSTEM    = UTC
MEAN_ELEMENT_THEORY = SGP/SGP4

EPOCH          = 2026-04-02T21:05:39.120864
MEAN_MOTION    = 15.44014391
ECCENTRICITY   = .001152
INCLINATION    = 82.4279
RA_OF_ASC_NODE = 250.7135
ARG_OF_PERICENTER = 70.9796
MEAN_ANOMALY   = 289.2698

EPHEMERIS_TYPE = 0
CLASSIFICATION_TYPE = U
NORAD_CAT_ID   = 33504
ELEMENT_SET_NO = 999
REV_AT_EPOCH   = 94947
BSTAR          = .52707E-3
MEAN_MOTION_DOT = .24158E-3
MEAN_MOTION_DDOT = 0

CCSDS_OMM_VERS = 2.0
CREATION_DATE  = 
ORIGINATOR     = 

OBJECT_NAME    = CZ-2C R/B
OBJECT_ID      = 2011-030B
CENTER_NAME    = EARTH
REF_FRAME      = TEME
TIME_SYSTEM    = UTC
MEAN_ELEMENT_THEORY = SGP/SGP4

EPOCH          = 2026-04-02T09:36:09.358848
MEAN_MOTION    = 14.81307565
ECCENTRICITY   = .00509691
INCLINATION    = 97.8585
RA_OF_ASC_NODE = 49.1963
ARG_OF_PERICENTER = 273.4339
MEAN_ANOMALY   = 202.0439

EPHEMERIS_TYPE = 0
CLASSIFICATION_TYPE = U
NORAD_CAT_ID   = 37731
ELEMENT_SET_NO = 999
REV_AT_EPOCH   = 79360
BSTAR          = .26404357E-3
MEAN_MOTION_DOT = .2051E-4
MEAN_MOTION_DDOT = 0

CCSDS_OMM_VERS = 2.0
CREATION_DATE  = 
ORIGINATOR     = 

OBJECT_NAME    = H-2A R/B
OBJECT_ID      = 2012-025E
CENTER_NAME    = EARTH
REF_FRAME      = TEME
TIME_SYSTEM    = UTC
MEAN_ELEMENT_THEORY = SGP/SGP4

EPOCH          = 2026-04-02T21:16:18.505056
MEAN_MOTION    = 14.95342386
ECCENTRICITY   = .0043111
INCLINATION    = 98.4773
RA_OF_ASC_NODE = 61.8793
ARG_OF_PERICENTER = 232.7624
MEAN_ANOMALY   = 126.9658

EPHEMERIS_TYPE = 0
CLASSIFICATION_TYPE = U
NORAD_CAT_ID   = 38341
ELEMENT_SET_NO = 999
REV_AT_EPOCH   = 75183
BSTAR          = .38944E-3
MEAN_MOTION_DOT = .4306E-4
MEAN_MOTION_DDOT = 0

CCSDS_OMM_VERS = 2.0
CREATION_DATE  = 
ORIGINATOR     = 

OBJECT_NAME    = SHIJIAN-16 (SJ-16)
OBJECT_ID      = 2013-057A
CENTER_NAME    = EARTH
REF_FRAME      = TEME
TIME_SYSTEM    = UTC
MEAN_ELEMENT_THEORY = SGP/SGP4

EPOCH          = 2026-04-02T19:54:09.482688
MEAN_MOTION    = 14.92437502
ECCENTRICITY   = .0015316
INCLINATION    = 74.9718
RA_OF_ASC_NODE = 139.3903
ARG_OF_PERICENTER = 49.8547
MEAN_ANOMALY   = 310.3980

EPHEMERIS_TYPE = 0
CLASSIFICATION_TYPE = U
NORAD_CAT_ID   = 39358
ELEMENT_SET_NO = 999
REV_AT_EPOCH   = 67510
BSTAR          = .19056E-3
MEAN_MOTION_DOT = .1929E-4
MEAN_MOTION_DDOT = 0

CCSDS_OMM_VERS = 2.0
CREATION_DATE  = 
ORIGINATOR     = 

OBJECT_NAME    = SL-4 R/B
OBJECT_ID      = 2014-021B
CENTER_NAME    = EARTH
REF_FRAME      = TEME
TIME_SYSTEM    = UTC
MEAN_ELEMENT_THEORY = SGP/SGP4

EPOCH          = 2026-04-02T17:02:42.421344
MEAN_MOTION    = 15.40065410
ECCENTRICITY   = .0094676
INCLINATION    = 51.6056
RA_OF_ASC_NODE = 220.0208
ARG_OF_PERICENTER = 190.5616
MEAN_ANOMALY   = 169.3382

EPHEMERIS_TYPE = 0
CLASSIFICATION_TYPE = U
NORAD_CAT_ID   = 39679
ELEMENT_SET_NO = 999
REV_AT_EPOCH   = 65997
BSTAR          = .5008E-3
MEAN_MOTION_DOT = .23478E-3
MEAN_MOTION_DDOT = 0

